Company,Business Registration,Chief Executive,CEO Position,Business Enquiry,Business Contact Person Position,Office Address,Postcode,City / Town,State,Country,Telephone,Fax,Email,Website,Raw Material Used,Production Processes,Products Manufactured / Business Line
Nikhil,COE,2,9.0
Sanchit,COE,2,9.1
Aditya,IT,2,9.3
Sagar,SE,1,9.5
Prateek,MCE,3,7.8
Sahil,EP,2,9.1
Nikhil,COE,2,9.0
Sanchit,COE,2,9.1
Aditya,IT,2,9.3
Sagar,SE,1,9.5
Prateek,MCE,3,7.8
Sahil,EP,2,9.1
Nikhil,COE,2,9.0
Sanchit,COE,2,9.1
Aditya,IT,2,9.3
Sagar,SE,1,9.5
Prateek,MCE,3,7.8
Sahil,EP,2,9.1
Nikhil,COE,2,9.0
Sanchit,COE,2,9.1
Aditya,IT,2,9.3
Sagar,SE,1,9.5
Prateek,MCE,3,7.8
Sahil,EP,2,9.1
Nikhil,COE,2,9.0
Sanchit,COE,2,9.1
Aditya,IT,2,9.3
Sagar,SE,1,9.5
Prateek,MCE,3,7.8
Sahil,EP,2,9.1
Nikhil,COE,2,9.0
Sanchit,COE,2,9.1
Aditya,IT,2,9.3
Sagar,SE,1,9.5
Prateek,MCE,3,7.8
Sahil,EP,2,9.1
Nikhil,COE,2,9.0
Sanchit,COE,2,9.1
Aditya,IT,2,9.3
Sagar,SE,1,9.5
Prateek,MCE,3,7.8
Sahil,EP,2,9.1
Nikhil,COE,2,9.0
Sanchit,COE,2,9.1
Aditya,IT,2,9.3
Sagar,SE,1,9.5
Prateek,MCE,3,7.8
Sahil,EP,2,9.1
Nikhil,COE,2,9.0
Sanchit,COE,2,9.1
Aditya,IT,2,9.3
Sagar,SE,1,9.5
Prateek,MCE,3,7.8
Sahil,EP,2,9.1
Nikhil,COE,2,9.0
Sanchit,COE,2,9.1
Aditya,IT,2,9.3
Sagar,SE,1,9.5
Prateek,MCE,3,7.8
Sahil,EP,2,9.1
Nikhil,COE,2,9.0
Sanchit,COE,2,9.1
Aditya,IT,2,9.3
Sagar,SE,1,9.5
Prateek,MCE,3,7.8
Sahil,EP,2,9.1
Nikhil,COE,2,9.0
Sanchit,COE,2,9.1
Aditya,IT,2,9.3
Sagar,SE,1,9.5
Prateek,MCE,3,7.8
Sahil,EP,2,9.1
Nikhil,COE,2,9.0
Sanchit,COE,2,9.1
Aditya,IT,2,9.3
Sagar,SE,1,9.5
Prateek,MCE,3,7.8
Sahil,EP,2,9.1
Nikhil,COE,2,9.0
Sanchit,COE,2,9.1
Aditya,IT,2,9.3
Sagar,SE,1,9.5
Prateek,MCE,3,7.8
Sahil,EP,2,9.1
Nikhil,COE,2,9.0
Sanchit,COE,2,9.1
Aditya,IT,2,9.3
Sagar,SE,1,9.5
Prateek,MCE,3,7.8
Sahil,EP,2,9.1
Nikhil,COE,2,9.0
Sanchit,COE,2,9.1
Aditya,IT,2,9.3
Sagar,SE,1,9.5
Prateek,MCE,3,7.8
Sahil,EP,2,9.1
Nikhil,COE,2,9.0
Sanchit,COE,2,9.1
Aditya,IT,2,9.3
Sagar,SE,1,9.5
Prateek,MCE,3,7.8
Sahil,EP,2,9.1
Nikhil,COE,2,9.0
Sanchit,COE,2,9.1
Aditya,IT,2,9.3
Sagar,SE,1,9.5
Prateek,MCE,3,7.8
Sahil,EP,2,9.1
Nikhil,COE,2,9.0
Sanchit,COE,2,9.1
Aditya,IT,2,9.3
Sagar,SE,1,9.5
Prateek,MCE,3,7.8
Sahil,EP,2,9.1
Nikhil,COE,2,9.0
Sanchit,COE,2,9.1
Aditya,IT,2,9.3
Sagar,SE,1,9.5
Prateek,MCE,3,7.8
Sahil,EP,2,9.1
Nikhil,COE,2,9.0
Sanchit,COE,2,9.1
Aditya,IT,2,9.3
Sagar,SE,1,9.5
Prateek,MCE,3,7.8
Sahil,EP,2,9.1
Nikhil,COE,2,9.0
Sanchit,COE,2,9.1
Aditya,IT,2,9.3
Sagar,SE,1,9.5
Prateek,MCE,3,7.8
Sahil,EP,2,9.1
Nikhil,COE,2,9.0
Sanchit,COE,2,9.1
Aditya,IT,2,9.3
Sagar,SE,1,9.5
Prateek,MCE,3,7.8
Sahil,EP,2,9.1
Nikhil,COE,2,9.0
Sanchit,COE,2,9.1
Aditya,IT,2,9.3
Sagar,SE,1,9.5
Prateek,MCE,3,7.8
Sahil,EP,2,9.1
Nikhil,COE,2,9.0
Sanchit,COE,2,9.1
Aditya,IT,2,9.3
Sagar,SE,1,9.5
Prateek,MCE,3,7.8
Sahil,EP,2,9.1
Nikhil,COE,2,9.0
Sanchit,COE,2,9.1
Aditya,IT,2,9.3
Sagar,SE,1,9.5
Prateek,MCE,3,7.8
Sahil,EP,2,9.1
Nikhil,COE,2,9.0
Sanchit,COE,2,9.1
Aditya,IT,2,9.3
Sagar,SE,1,9.5
Prateek,MCE,3,7.8
Sahil,EP,2,9.1
Nikhil,COE,2,9.0
Sanchit,COE,2,9.1
Aditya,IT,2,9.3
Sagar,SE,1,9.5
Prateek,MCE,3,7.8
Sahil,EP,2,9.1
Nikhil,COE,2,9.0
Sanchit,COE,2,9.1
Aditya,IT,2,9.3
Sagar,SE,1,9.5
Prateek,MCE,3,7.8
Sahil,EP,2,9.1
Nikhil,COE,2,9.0
Sanchit,COE,2,9.1
Aditya,IT,2,9.3
Sagar,SE,1,9.5
Prateek,MCE,3,7.8
Sahil,EP,2,9.1
Nikhil,COE,2,9.0
Sanchit,COE,2,9.1
Aditya,IT,2,9.3
Sagar,SE,1,9.5
Prateek,MCE,3,7.8
Sahil,EP,2,9.1
Nikhil,COE,2,9.0
Sanchit,COE,2,9.1
Aditya,IT,2,9.3
Sagar,SE,1,9.5
Prateek,MCE,3,7.8
Sahil,EP,2,9.1
Nikhil,COE,2,9.0
Sanchit,COE,2,9.1
Aditya,IT,2,9.3
Sagar,SE,1,9.5
Prateek,MCE,3,7.8
Sahil,EP,2,9.1
Nikhil,COE,2,9.0
Sanchit,COE,2,9.1
Aditya,IT,2,9.3
Sagar,SE,1,9.5
Prateek,MCE,3,7.8
Sahil,EP,2,9.1
Nikhil,COE,2,9.0
Sanchit,COE,2,9.1
Aditya,IT,2,9.3
Sagar,SE,1,9.5
Prateek,MCE,3,7.8
Sahil,EP,2,9.1
Nikhil,COE,2,9.0
Sanchit,COE,2,9.1
Aditya,IT,2,9.3
Sagar,SE,1,9.5
Prateek,MCE,3,7.8
Sahil,EP,2,9.1
Nikhil,COE,2,9.0
Sanchit,COE,2,9.1
Aditya,IT,2,9.3
Sagar,SE,1,9.5
Prateek,MCE,3,7.8
Sahil,EP,2,9.1
Nikhil,COE,2,9.0
Sanchit,COE,2,9.1
Aditya,IT,2,9.3
Sagar,SE,1,9.5
Prateek,MCE,3,7.8
Sahil,EP,2,9.1
Nikhil,COE,2,9.0
Sanchit,COE,2,9.1
Aditya,IT,2,9.3
Sagar,SE,1,9.5
Prateek,MCE,3,7.8
Sahil,EP,2,9.1
Nikhil,COE,2,9.0
Sanchit,COE,2,9.1
Aditya,IT,2,9.3
Sagar,SE,1,9.5
Prateek,MCE,3,7.8
Sahil,EP,2,9.1
Nikhil,COE,2,9.0
Sanchit,COE,2,9.1
Aditya,IT,2,9.3
Sagar,SE,1,9.5
Prateek,MCE,3,7.8
Sahil,EP,2,9.1
Nikhil,COE,2,9.0
Sanchit,COE,2,9.1
Aditya,IT,2,9.3
Sagar,SE,1,9.5
Prateek,MCE,3,7.8
Sahil,EP,2,9.1
Nikhil,COE,2,9.0
Sanchit,COE,2,9.1
Aditya,IT,2,9.3
Sagar,SE,1,9.5
Prateek,MCE,3,7.8
Sahil,EP,2,9.1
Nikhil,COE,2,9.0
Sanchit,COE,2,9.1
Aditya,IT,2,9.3
Sagar,SE,1,9.5
Prateek,MCE,3,7.8
Sahil,EP,2,9.1
Nikhil,COE,2,9.0
Sanchit,COE,2,9.1
Aditya,IT,2,9.3
Sagar,SE,1,9.5
Prateek,MCE,3,7.8
Sahil,EP,2,9.1
Nikhil,COE,2,9.0
Sanchit,COE,2,9.1
Aditya,IT,2,9.3
Sagar,SE,1,9.5
Prateek,MCE,3,7.8
Sahil,EP,2,9.1
Nikhil,COE,2,9.0
Sanchit,COE,2,9.1
Aditya,IT,2,9.3
Sagar,SE,1,9.5
Prateek,MCE,3,7.8
Sahil,EP,2,9.1
Nikhil,COE,2,9.0
Sanchit,COE,2,9.1
Aditya,IT,2,9.3
Sagar,SE,1,9.5
Prateek,MCE,3,7.8
Sahil,EP,2,9.1
Nikhil,COE,2,9.0
Sanchit,COE,2,9.1
Aditya,IT,2,9.3
Sagar,SE,1,9.5
Prateek,MCE,3,7.8
Sahil,EP,2,9.1
Nikhil,COE,2,9.0
Sanchit,COE,2,9.1
Aditya,IT,2,9.3
Sagar,SE,1,9.5
Prateek,MCE,3,7.8
Sahil,EP,2,9.1
Nikhil,COE,2,9.0
Sanchit,COE,2,9.1
Aditya,IT,2,9.3
Sagar,SE,1,9.5
Prateek,MCE,3,7.8
Sahil,EP,2,9.1
Nikhil,COE,2,9.0
Sanchit,COE,2,9.1
Aditya,IT,2,9.3
Sagar,SE,1,9.5
Prateek,MCE,3,7.8
Sahil,EP,2,9.1
Nikhil,COE,2,9.0
Sanchit,COE,2,9.1
Aditya,IT,2,9.3
Sagar,SE,1,9.5
Prateek,MCE,3,7.8
Sahil,EP,2,9.1
Nikhil,COE,2,9.0
Sanchit,COE,2,9.1
Aditya,IT,2,9.3
Sagar,SE,1,9.5
Prateek,MCE,3,7.8
Sahil,EP,2,9.1
Nikhil,COE,2,9.0
Sanchit,COE,2,9.1
Aditya,IT,2,9.3
Sagar,SE,1,9.5
Prateek,MCE,3,7.8
Sahil,EP,2,9.1
Nikhil,COE,2,9.0
Sanchit,COE,2,9.1
Aditya,IT,2,9.3
Sagar,SE,1,9.5
Prateek,MCE,3,7.8
Sahil,EP,2,9.1
